NORAD_CAT_ID,OBJECT_NAME,OBJECT_TYPE,EPOCH,MEAN_MOTION,ECCENTRICITY,INCLINATION,RA_OF_ASC_NODE,ARG_OF_PERICENTER,MEAN_ANOMALY,BSTAR,MEAN_MOTION_DOT,MEAN_MOTION_DDOT,TLE_LINE0,TLE_LINE1,TLE_LINE2,SEMIMAJOR_AXIS,PERIOD,APOGEE,PERIGEE,DECAYED
53856.0,STARLINK-4795,PAYLOAD,2022-12-18 14:00:01,15.52754187,0.0001235,53.2178,171.3191,68.4845,34.6477,-0.019903,-0.01129796,0.0,0 STARLINK-4795,1 53856U 22114AQ  22352.58334491 -.01129796  00000-0 -19903-1 0  9998,2 53856  53.2178 171.3191 0001235  68.4845  34.6477 15.52754187  1304,6786.826,92.738,409.529,407.853,0.0
53856.0,STARLINK-4795,PAYLOAD,2022-12-18 22:00:00,15.51936871,0.0001648,53.2177,169.7219,44.1345,122.8608,-0.020381,-0.01123873,0.0,0 STARLINK-4795,1 53856U 22114AQ  22352.91667824 -.01123873  00000-0 -20381-1 0  9996,2 53856  53.2177 169.7219 0001648  44.1345 122.8608 15.51936871  1306,6789.208000000001,92.787,412.192,409.955,0.0
53856.0,STARLINK-4795,PAYLOAD,2022-12-19 08:00:01,15.50832078,0.0001408,53.2174,167.7238,50.1192,285.3482,-0.016904,-0.00901086,0.0,0 STARLINK-4795,1 53856U 22114AQ  22353.33334491 -.00901086  00000-0 -16904-1 0  9999,2 53856  53.2174 167.7238 0001408  50.1192 285.3482 15.50832078 14934,6792.432,92.853,415.254,413.341,0.0
53856.0,STARLINK-4795,PAYLOAD,2022-12-19 10:00:00,15.50592504,0.0001448,53.2175,167.3247,48.4373,32.5402,-0.013921,-0.00748177,0.0,0 STARLINK-4795,1 53856U 22114AQ  22353.41667824 -.00748177  00000-0 -13921-1 0  9993,2 53856  53.2175 167.3247 0001448  48.4373  32.5402 15.50592504  1304,6793.132,92.868,415.981,414.013,0.0
53856.0,STARLINK-4795,PAYLOAD,2022-12-19 16:00:00,15.50091604,0.000159,53.2177,166.1304,50.2702,346.853,-0.0060196999999999,-0.0033051,0.0,0 STARLINK-4795,1 53856U 22114AQ  22353.66667824 -.00330510  00000-0 -60197-2 0  9996,2 53856  53.2177 166.1304 0001590  50.2702 346.8530 15.50091604 14999,6794.595,92.898,417.541,415.38,0.0
53856.0,STARLINK-4795,PAYLOAD,2022-12-19 22:00:00,15.50012808,0.0001723,53.2174,164.9364,41.958,310.9351,-0.010992,-0.00582666,0.0,0 STARLINK-4795,1 53856U 22114AQ  22353.91667824 -.00582666  00000-0 -10992-1 0  9992,2 53856  53.2174 164.9364 0001723  41.9580 310.9351 15.50012808  1300,6794.826,92.902,417.861,415.52,0.0
53856.0,STARLINK-4795,PAYLOAD,2022-12-20 14:00:01,15.48789597,0.0002017,53.2167,161.7503,30.2355,83.67399999999998,-0.020675,-0.01028067,0.0,0 STARLINK-4795,1 53856U 22114AQ  22354.58334491 -.01028067  00000-0 -20675-1 0  9997,2 53856  53.2167 161.7503 0002017  30.2355  83.6740 15.48789597  1309,6798.403,92.976,421.639,418.897,0.0
53856.0,STARLINK-4795,PAYLOAD,2022-12-21 08:00:01,15.47029413,0.0001674,53.2172,158.1756,30.4589,305.213,-0.024288,-0.01141435,0.0,0 STARLINK-4795,1 53856U 22114AQ  22355.33334491 -.01141435  00000-0 -24288-1 0  9990,2 53856  53.2172 158.1756 0001674  30.4589 305.2130 15.47029413 15241,6803.559,93.082,426.562,424.285,0.0
53856.0,STARLINK-4795,PAYLOAD,2022-12-21 14:00:01,15.46421079,0.0001749,53.2175,156.9874,34.466,254.036,-0.02487,-0.01144083,0.0,0 STARLINK-4795,1 53856U 22114AQ  22355.58334491 -.01144083  00000-0 -24870-1 0  9996,2 53856  53.2175 156.9874 0001749  34.4660 254.0360 15.46421079  1309,6805.343000000003,93.118,428.398,426.017,0.0
53856.0,STARLINK-4795,PAYLOAD,2022-12-22 08:00:01,15.44589653,0.0001866,53.2172,153.4256,34.4746,109.2227,-0.02648,-0.01143634,0.0,0 STARLINK-4795,1 53856U 22114AQ  22356.33334491 -.01143634  00000-0 -26480-1 0  9990,2 53856  53.2172 153.4256 0001866  34.4746 109.2227 15.44589653 15407,6810.721,93.229,433.857,431.315,0.0
53856.0,STARLINK-4795,PAYLOAD,2022-12-22 14:00:01,15.43979626,0.0002061,53.2175,152.2419,27.3013,67.0267,-0.027038,-0.01143674,0.0,0 STARLINK-4795,1 53856U 22114AQ  22356.58334491 -.01143674  00000-0 -27038-1 0  9991,2 53856  53.2175 152.2419 0002061  27.3013  67.0267 15.43979626  1305,6812.515,93.265,435.784,432.976,0.0
53856.0,STARLINK-4795,PAYLOAD,2022-12-23 00:00:00,15.42964008,0.0001968,53.2171,150.2703,30.8445,219.9791,-0.028047,-0.01145841,0.0,0 STARLINK-4795,1 53856U 22114AQ  22357.00001157 -.01145841  00000-0 -28047-1 0  9998,2 53856  53.2171 150.2703 0001968  30.8445 219.9791 15.42964008  1305,6815.504,93.327,438.71,436.028,0.0
53856.0,STARLINK-4795,PAYLOAD,2022-12-23 08:00:01,15.42183861,0.0006307999999999,53.217,148.6938,270.4569,32.4491,-0.030094,-0.0119458,0.0,0 STARLINK-4795,1 53856U 22114AQ  22357.33334491 -.01194580  00000-0 -30094-1 0  9993,2 53856  53.2170 148.6938 0006308 270.4569  32.4491 15.42183861 15554,6817.802,93.374,443.968,435.367,0.0
53856.0,STARLINK-4795,PAYLOAD,2022-12-23 14:00:01,15.41556571,0.0001466,53.217,147.5139,315.6624,295.6819,-0.030052,-0.01168521,0.0,0 STARLINK-4795,1 53856U 22114AQ  22357.58334491 -.01168521  00000-0 -30052-1 0  9990,2 53856  53.2170 147.5139 0001466 315.6624 295.6819 15.41556571  1305,6819.651999999999,93.412,442.516,440.517,0.0
53856.0,STARLINK-4795,PAYLOAD,2022-12-23 16:00:00,15.4132697,0.0001371,53.2173,147.1212,335.2121,18.8314,-0.02916,-0.01128755,0.0,0 STARLINK-4795,1 53856U 22114AQ  22357.66667824 -.01128755  00000-0 -29160-1 0  9991,2 53856  53.2173 147.1212 0001371 335.2121  18.8314 15.41326970 15602,6820.329000000002,93.426,443.129,441.259,0.0
53856.0,STARLINK-4795,PAYLOAD,2022-12-23 22:00:01,15.40749218,0.0001171,53.2168,145.94299999999996,35.3176,266.4725,-0.03107,-0.01175164,0.0,0 STARLINK-4795,1 53856U 22114AQ  22357.91668981 -.01175164  00000-0 -31070-1 0  9993,2 53856  53.2168 145.9430 0001171  35.3176 266.4725 15.40749218  1302,6822.034000000002,93.461,444.698,443.1,0.0
53856.0,STARLINK-4795,PAYLOAD,2022-12-24 10:00:00,15.39503013,0.0001541,53.2175,143.5862,55.136,140.3489,-0.031314,-0.01139718,0.0,0 STARLINK-4795,1 53856U 22114AQ  22358.41667824 -.01139718  00000-0 -31314-1 0  9990,2 53856  53.2175 143.5862 0001541  55.1360 140.3489 15.39503013 15726,6825.715,93.537,448.632,446.528,0.0
53856.0,STARLINK-4795,PAYLOAD,2022-12-24 14:00:01,15.39085987,0.0001412,53.217,142.8034,48.8182,350.7642,-0.031359,-0.01126876,0.0,0 STARLINK-4795,1 53856U 22114AQ  22358.58334491 -.01126876  00000-0 -31359-1 0  9999,2 53856  53.2170 142.8034 0001412  48.8182 350.7642 15.39085987  1304,6826.948,93.562,449.777,447.849,0.0
53856.0,STARLINK-4795,PAYLOAD,2022-12-24 22:00:00,15.38272698,0.0001665,53.2165,141.2382,43.0078,44.0257,-0.032183,-0.01126077,0.0,0 STARLINK-4795,1 53856U 22114AQ  22358.91667824 -.01126077  00000-0 -32183-1 0  9994,2 53856  53.2165 141.2382 0001665  43.0078  44.0257 15.38272698  1309,6829.354,93.611,452.356,450.082,0.0
53856.0,STARLINK-4795,PAYLOAD,2022-12-25 08:00:01,15.37264706,0.0001506999999999,53.2172,139.2805,52.8838,182.0876,-0.0337149999999999,-0.01140055,0.0,0 STARLINK-4795,1 53856U 22114AQ  22359.33334491 -.01140055  00000-0 -33715-1 0  9996,2 53856  53.2172 139.2805 0001507  52.8838 182.0876 15.37264706 15867,6832.339,93.673,455.234,453.174,0.0
53856.0,STARLINK-4795,PAYLOAD,2022-12-25 14:00:01,15.36681466,0.0001518,53.2169,138.1103,55.3089,123.6794,-0.03556,-0.01176313,0.0,0 STARLINK-4795,1 53856U 22114AQ  22359.58334491 -.01176313  00000-0 -35560-1 0  9999,2 53856  53.2169 138.1103 0001518  55.3089 123.6794 15.36681466  1309,6834.068,93.708,456.97,454.895,0.0
53856.0,STARLINK-4795,PAYLOAD,2022-12-26 00:00:00,15.35638536,0.000139,53.217,136.1599,47.3301,277.1667,-0.035606,-0.0114192,0.0,0 STARLINK-4795,1 53856U 22114AQ  22360.00001157 -.01141920  00000-0 -35606-1 0  9995,2 53856  53.2170 136.1599 0001390  47.3301 277.1667 15.35638536  1307,6837.1619999999975,93.772,459.977,458.076,0.0
53856.0,STARLINK-4795,PAYLOAD,2022-12-26 06:00:00,15.35041614,0.0001422,53.2171,134.9904,51.9773,215.0773,-0.036897,-0.01159146,0.0,0 STARLINK-4795,1 53856U 22114AQ  22360.25001157 -.01159146  00000-0 -36897-1 0  9994,2 53856  53.2171 134.9904 0001422  51.9773 215.0773 15.35041614 16001,6838.934,93.809,461.771,459.826,0.0
53856.0,STARLINK-4795,PAYLOAD,2022-12-26 14:00:01,15.34216939,0.0001318,53.217,133.4345,62.8888,246.7336,-0.037338,-0.01143815,0.0,0 STARLINK-4795,1 53856U 22114AQ  22360.58334491 -.01143815  00000-0 -37338-1 0  9997,2 53856  53.2170 133.4345 0001318  62.8888 246.7336 15.34216939  1301,6841.384,93.859,464.151,462.348,0.0
53856.0,STARLINK-4795,PAYLOAD,2022-12-27 00:00:00,15.33195707,0.0001597,53.2171,131.4912,45.4537,45.9997,-0.038369,-0.01138347,0.0,0 STARLINK-4795,1 53856U 22114AQ  22361.00001157 -.01138347  00000-0 -38369-1 0  9994,2 53856  53.2171 131.4912 0001597  45.4537  45.9997 15.33195707  1307,6844.422,93.921,467.38,465.194,0.0
53856.0,STARLINK-4795,PAYLOAD,2022-12-27 08:00:01,15.32381798,0.0001710999999999,53.2174,129.9373,43.6871,88.1939,-0.039354,-0.01137916,0.0,0 STARLINK-4795,1 53856U 22114AQ  22361.33335648 -.01137916  00000-0 -39354-1 0  9991,2 53856  53.2174 129.9373 0001711  43.6871  88.1939 15.32381798 16174,6846.845,93.971,469.882,467.539,0.0
53856.0,STARLINK-4795,PAYLOAD,2022-12-27 14:00:01,15.31776043,0.0001556,53.2171,128.776,48.3446,23.1004,-0.040383,-0.01144866,0.0,0 STARLINK-4795,1 53856U 22114AQ  22361.58334491 -.01144866  00000-0 -40383-1 0  9999,2 53856  53.2171 128.7760 0001556  48.3446  23.1004 15.31776043  1306,6848.65,94.009,471.581,469.45,0.0
53856.0,STARLINK-4795,PAYLOAD,2022-12-27 22:00:00,15.30956642,0.0001854,53.2167,127.2277,38.6908,71.4075,-0.041062,-0.01135508,0.0,0 STARLINK-4795,1 53856U 22114AQ  22361.91667824 -.01135508  00000-0 -41062-1 0  9993,2 53856  53.2167 127.2277 0001854  38.6908  71.4075 15.30956642  1302,6851.094,94.059,474.229,471.689,0.0
53856.0,STARLINK-4795,PAYLOAD,2022-12-28 08:00:01,15.2994055,0.0001614,53.2173,125.2921,48.4684,198.5702,-0.042442,-0.01136831,0.0,0 STARLINK-4795,1 53856U 22114AQ  22362.33334491 -.01136831  00000-0 -42442-1 0  9994,2 53856  53.2173 125.2921 0001614  48.4684 198.5702 15.29940550 16322,6854.127,94.121,477.098,474.886,0.0
